start=new Date('2022-01-22T00:00:00.000Z').valueOf();
sats=[{"MEAN_MOTION_DOT":"0.00001055","EPOCH":"2022-01-21T10:06:05.950080","OBJECT_NAME":"STARLINK-2510","MEAN_MOTION_DDOT":"0.0000000000000","ECCENTRICITY":"0.00015280","TLE_LINE1":"1 48329U 21036BF  22021.42090220  .00001055  00000-0  89721-4 0  9996","RA_OF_ASC_NODE":"32.5002","INCLINATION":"53.0567","DECAY_DATE":null,"TIME_SYSTEM":"UTC","OBJECT_TYPE":"PAYLOAD","CENTER_NAME":"EARTH","LAUNCH_DATE":"2021-04-29","FILE":"3279324","GP_ID":"194329320","CLASSIFICATION_TYPE":"U","EPHEMERIS_TYPE":"0","APOAPSIS":"548.278","REF_FRAME":"TEME","TLE_LINE2":"2 48329  53.0567  32.5002 0001528  67.5865 292.5285 15.06398060 40701","MEAN_MOTION":"15.06398060","BSTAR":"0.00008972100000","RCS_SIZE":"LARGE","PERIAPSIS":"546.161","ELEMENT_SET_NO":"999","PERIOD":"95.592","OBJECT_ID":"2021-036BF","SEMIMAJOR_AXIS":"6925.355","COUNTRY_CODE":"US","ARG_OF_PERICENTER":"67.5865","MEAN_ELEMENT_THEORY":"SGP4","NORAD_CAT_ID":"48329","MEAN_ANOMALY":"292.5285","SITE":"AFETR","REV_AT_EPOCH":"4070"},{"GP_ID":"194328570","CLASSIFICATION_TYPE":"U","EPHEMERIS_TYPE":"0","APOAPSIS":"548.130","REF_FRAME":"TEME","TLE_LINE2":"2 48330  53.0560  31.9307 0001341  75.1465 284.9672 15.06404028 40720","MEAN_MOTION":"15.06404028","BSTAR":"0.00006232200000","RCS_SIZE":"LARGE","PERIAPSIS":"546.273","ELEMENT_SET_NO":"999","PERIOD":"95.592","OBJECT_ID":"2021-036BG","SEMIMAJOR_AXIS":"6925.336","MEAN_ELEMENT_THEORY":"SGP4","COUNTRY_CODE":"US","ARG_OF_PERICENTER":"75.1465","NORAD_CAT_ID":"48330","SITE":"AFETR","MEAN_ANOMALY":"284.9672","REV_AT_EPOCH":"4072","MEAN_MOTION_DOT":"0.00000647","OBJECT_NAME":"STARLINK-2501","EPOCH":"2022-01-21T13:11:51.334944","MEAN_MOTION_DDOT":"0.0000000000000","ECCENTRICITY":"0.00013410","TLE_LINE1":"1 48330U 21036BG  22021.54989971  .00000647  00000-0  62322-4 0  9995","RA_OF_ASC_NODE":"31.9307","INCLINATION":"53.0560","DECAY_DATE":null,"TIME_SYSTEM":"UTC","OBJECT_TYPE":"PAYLOAD","CENTER_NAME":"EARTH","LAUNCH_DATE":"2021-04-29","FILE":"3279324"},{"INCLINATION":"53.0568","DECAY_DATE":null,"FILE":"3279324","LAUNCH_DATE":"2021-04-29","OBJECT_TYPE":"PAYLOAD","CENTER_NAME":"EARTH","TIME_SYSTEM":"UTC","RA_OF_ASC_NODE":"32.5359","TLE_LINE1":"1 48331U 21036BH  22021.41353421  .00001710  00000-0  13367-3 0  9993","ECCENTRICITY":"0.00015650","MEAN_MOTION_DDOT":"0.0000000000000","MEAN_MOTION_DOT":"0.00001710","EPOCH":"2022-01-21T09:55:29.355744","OBJECT_NAME":"STARLINK-2514","MEAN_ANOMALY":"282.2100","SITE":"AFETR","COUNTRY_CODE":"US","NORAD_CAT_ID":"48331","MEAN_ELEMENT_THEORY":"SGP4","ARG_OF_PERICENTER":"77.9064","REV_AT_EPOCH":"4070","OBJECT_ID":"2021-036BH","SEMIMAJOR_AXIS":"6925.363","BSTAR":"0.00013367000000","MEAN_MOTION":"15.06395137","TLE_LINE2":"2 48331  53.0568  32.5359 0001565  77.9064 282.2100 15.06395137 40701","REF_FRAME":"TEME","APOAPSIS":"548.312","PERIOD":"95.592","ELEMENT_SET_NO":"999","PERIAPSIS":"546.145","RCS_SIZE":"LARGE","EPHEMERIS_TYPE":"0","CLASSIFICATION_TYPE":"U","GP_ID":"194328316"},{"RA_OF_ASC_NODE":"32.5454","TLE_LINE1":"1 48332U 21036BJ  22021.41256900  .00001731  00000-0  13507-3 0  9997","ECCENTRICITY":"0.00015670","MEAN_MOTION_DDOT":"0.0000000000000","LAUNCH_DATE":"2021-04-29","FILE":"3279324","OBJECT_TYPE":"PAYLOAD","CENTER_NAME":"EARTH","TIME_SYSTEM":"UTC","INCLINATION":"53.0532","DECAY_DATE":null,"OBJECT_NAME":"STARLINK-2511","EPOCH":"2022-01-21T09:54:05.961600","MEAN_MOTION_DOT":"0.00001731","SEMIMAJOR_AXIS":"6925.329","OBJECT_ID":"2021-036BJ","REV_AT_EPOCH":"4070","MEAN_ANOMALY":"291.3756","SITE":"AFETR","COUNTRY_CODE":"US","MEAN_ELEMENT_THEORY":"SGP4","NORAD_CAT_ID":"48332","ARG_OF_PERICENTER":"68.7400","EPHEMERIS_TYPE":"0","GP_ID":"194329070","CLASSIFICATION_TYPE":"U","PERIOD":"95.592","ELEMENT_SET_NO":"999","PERIAPSIS":"546.109","RCS_SIZE":"LARGE","BSTAR":"0.00013507000000","MEAN_MOTION":"15.06406431","TLE_LINE2":"2 48332  53.0532  32.5454 0001567  68.7400 291.3756 15.06406431 40701","REF_FRAME":"TEME","APOAPSIS":"548.279"},{"ECCENTRICITY":"0.00015050","MEAN_MOTION_DDOT":"0.0000000000000","TLE_LINE1":"1 48333U 21036BK  22021.73788082  .00001004  00000-0  86272-4 0  9997","RA_OF_ASC_NODE":"31.0771","TIME_SYSTEM":"UTC","LAUNCH_DATE":"2021-04-29","FILE":"3279490","OBJECT_TYPE":"PAYLOAD","CENTER_NAME":"EARTH","DECAY_DATE":null,"INCLINATION":"53.0540","OBJECT_NAME":"STARLINK-2518","EPOCH":"2022-01-21T17:42:32.902848","MEAN_MOTION_DOT":"0.00001004","SEMIMAJOR_AXIS":"6925.332","OBJECT_ID":"2021-036BK","REV_AT_EPOCH":"4134","COUNTRY_CODE":"US","MEAN_ELEMENT_THEORY":"SGP4","ARG_OF_PERICENTER":"71.2411","NORAD_CAT_ID":"48333","MEAN_ANOMALY":"288.8742","SITE":"AFETR","EPHEMERIS_TYPE":"0","GP_ID":"194335730","CLASSIFICATION_TYPE":"U","PERIAPSIS":"546.154","RCS_SIZE":"LARGE","PERIOD":"95.592","ELEMENT_SET_NO":"999","TLE_LINE2":"2 48333  53.0540  31.0771 0001505  71.2411 288.8742 15.06405558 41346","REF_FRAME":"TEME","APOAPSIS":"548.239","BSTAR":"0.00008627200000","MEAN_MOTION":"15.06405558"},{"DECAY_DATE":null,"INCLINATION":"53.0538","LAUNCH_DATE":"2021-04-29","FILE":"3279324","CENTER_NAME":"EARTH","OBJECT_TYPE":"PAYLOAD","TIME_SYSTEM":"UTC","RA_OF_ASC_NODE":"32.5843","TLE_LINE1":"1 48334U 21036BL  22021.40246821 -.00000047  00000-0  15753-4 0  9995","ECCENTRICITY":"0.00015800","MEAN_MOTION_DDOT":"0.0000000000000","MEAN_MOTION_DOT":"-0.00000047","OBJECT_NAME":"STARLINK-2470","EPOCH":"2022-01-21T09:39:33.253344","SITE":"AFETR","MEAN_ANOMALY":"293.2809","COUNTRY_CODE":"US","MEAN_ELEMENT_THEORY":"SGP4","NORAD_CAT_ID":"48334","ARG_OF_PERICENTER":"66.8346","REV_AT_EPOCH":"4070","SEMIMAJOR_AXIS":"6925.351","OBJECT_ID":"2021-036BL","BSTAR":"0.00001575300000","MEAN_MOTION":"15.06399293","TLE_LINE2":"2 48334  53.0538  32.5843 0001580  66.8346 293.2809 15.06399293 40701","REF_FRAME":"TEME","APOAPSIS":"548.310","PERIOD":"95.592","ELEMENT_SET_NO":"999","PERIAPSIS":"546.122","RCS_SIZE":"LARGE","EPHEMERIS_TYPE":"0","GP_ID":"194328071","CLASSIFICATION_TYPE":"U"},{"EPOCH":"2022-01-21T11:09:48.134016","OBJECT_NAME":"STARLINK-2441","MEAN_MOTION_DOT":"-0.00000962","ECCENTRICITY":"0.00015900","MEAN_MOTION_DDOT":"0.0000000000000","TLE_LINE1":"1 48335U 21036BM  22021.46514044 -.00000962  00000-0 -45712-4 0  9992","RA_OF_ASC_NODE":"32.3096","TIME_SYSTEM":"UTC","FILE":"3279324","LAUNCH_DATE":"2021-04-29","OBJECT_TYPE":"PAYLOAD","CENTER_NAME":"EARTH","DECAY_DATE":null,"INCLINATION":"53.0547","EPHEMERIS_TYPE":"0","CLASSIFICATION_TYPE":"U","GP_ID":"194328816","RCS_SIZE":"LARGE","PERIAPSIS":"546.118","PERIOD":"95.592","ELEMENT_SET_NO":"999","TLE_LINE2":"2 48335  53.0547  32.3096 0001590  74.4519 285.6645 15.06398065 40718","APOAPSIS":"548.321","REF_FRAME":"TEME","BSTAR":"-0.00004571200000","MEAN_MOTION":"15.06398065","OBJECT_ID":"2021-036BM","SEMIMAJOR_AXIS":"6925.354","REV_AT_EPOCH":"4071","COUNTRY_CODE":"US","MEAN_ELEMENT_THEORY":"SGP4","ARG_OF_PERICENTER":"74.4519","NORAD_CAT_ID":"48335","MEAN_ANOMALY":"285.6645","SITE":"AFETR"},{"TIME_SYSTEM":"UTC","LAUNCH_DATE":"2021-05-04","FILE":"3279324","CENTER_NAME":"EARTH","OBJECT_TYPE":"PAYLOAD","DECAY_DATE":null,"INCLINATION":"53.0544","ECCENTRICITY":"0.00017820","MEAN_MOTION_DDOT":"0.0000000000000","TLE_LINE1":"1 48353U 21038A   22021.47066271 -.00003882  00000-0 -24199-3 0  9998","RA_OF_ASC_NODE":"292.2860","EPOCH":"2022-01-21T11:17:45.258144","OBJECT_NAME":"STARLINK-2613","MEAN_MOTION_DOT":"-0.00003882","REV_AT_EPOCH":"3970","COUNTRY_CODE":"US","ARG_OF_PERICENTER":"66.5648","MEAN_ELEMENT_THEORY":"SGP4","NORAD_CAT_ID":"48353","MEAN_ANOMALY":"293.5528","SITE":"AFETR","SEMIMAJOR_AXIS":"6925.411","OBJECT_ID":"2021-038A","RCS_SIZE":"LARGE","PERIAPSIS":"546.042","PERIOD":"95.593","ELEMENT_SET_NO":"999","TLE_LINE2":"2 48353  53.0544 292.2860 0001782  66.5648 293.5528 15.06379609 39707","APOAPSIS":"548.510","REF_FRAME":"TEME","BSTAR":"-0.00024199000000","MEAN_MOTION":"15.06379609","EPHEMERIS_TYPE":"0","GP_ID":"194329822","CLASSIFICATION_TYPE":"U"},{"INCLINATION":"53.0545","DECAY_DATE":null,"TIME_SYSTEM":"UTC","LAUNCH_DATE":"2021-05-04","FILE":"3279324","OBJECT_TYPE":"PAYLOAD","CENTER_NAME":"EARTH","ECCENTRICITY":"0.00016960","MEAN_MOTION_DDOT":"0.0000000000000","RA_OF_ASC_NODE":"292.2952","TLE_LINE1":"1 48354U 21038B   22021.46697513 -.00005527  00000-0 -35257-3 0  9992","MEAN_MOTION_DOT":"-0.00005527","OBJECT_NAME":"STARLINK-2674","EPOCH":"2022-01-21T11:12:26.651232","COUNTRY_CODE":"US","ARG_OF_PERICENTER":"61.3211","MEAN_ELEMENT_THEORY":"SGP4","NORAD_CAT_ID":"48354","SITE":"AFETR","MEAN_ANOMALY":"298.7948","REV_AT_EPOCH":"3970","OBJECT_ID":"2021-038B","SEMIMAJOR_AXIS":"6925.389","TLE_LINE2":"2 48354  53.0545 292.2952 0001696  61.3211 298.7948 15.06386956 39700","REF_FRAME":"TEME","APOAPSIS":"548.428","BSTAR":"-0.00035257000000","MEAN_MOTION":"15.06386956","PERIAPSIS":"546.079","RCS_SIZE":"LARGE","PERIOD":"95.593","ELEMENT_SET_NO":"999","EPHEMERIS_TYPE":"0","CLASSIFICATION_TYPE":"U","GP_ID":"194328073"},{"MEAN_MOTION":"15.06386503","BSTAR":"-0.00033708000000","APOAPSIS":"548.587","REF_FRAME":"TEME","TLE_LINE2":"2 48355  53.0530 292.3192 0001924  66.5685 293.5507 15.06386503 39700","ELEMENT_SET_NO":"999","PERIOD":"95.593","RCS_SIZE":"LARGE","PERIAPSIS":"545.922","CLASSIFICATION_TYPE":"U","GP_ID":"194328818","EPHEMERIS_TYPE":"0","MEAN_ANOMALY":"293.5507","SITE":"AFETR","COUNTRY_CODE":"US","MEAN_ELEMENT_THEORY":"SGP4","ARG_OF_PERICENTER":"66.5685","NORAD_CAT_ID":"48355","REV_AT_EPOCH":"3970","OBJECT_ID":"2021-038C","SEMIMAJOR_AXIS":"6925.390","MEAN_MOTION_DOT":"-0.00005297","OBJECT_NAME":"STARLINK-2635","EPOCH":"2022-01-21T11:07:08.795136","INCLINATION":"53.0530","DECAY_DATE":null,"OBJECT_TYPE":"PAYLOAD","CENTER_NAME":"EARTH","LAUNCH_DATE":"2021-05-04","FILE":"3279324","TIME_SYSTEM":"UTC","RA_OF_ASC_NODE":"292.3192","TLE_LINE1":"1 48355U 21038C   22021.46329624 -.00005297  00000-0 -33708-3 0  9991","MEAN_MOTION_DDOT":"0.0000000000000","ECCENTRICITY":"0.00019240"}];
